#aV2013  7 24  0  0  0.00000000     288 DD+AD WGS84 FIT  NGA
## 1750 259200.00000000   300.00000000 56497 0.0000000000000
+   31     1  2  3  4  5  6  7  8  9 10 11 12 13 14 15 16 17
+         18 19 20 21 22 23 24 25 26 27 28 29 31 32  0  0  0
+          0  0  0  0  0  0  0  0  0  0  0  0  0  0  0  0  0
+          0  0  0  0  0  0  0  0  0  0  0  0  0  0  0  0  0
+          0  0  0  0  0  0  0  0  0  0  0  0  0  0  0  0  0
++         2  2  2  2  2  2  2  2  2  2  2  2  2  2  2  2  2
++         2  2  2  2  2  2  2  2  2  2  2  2  2  2  2  0  0
++         0  0  0  0  0  0  0  0  0  0  0  0  0  0  0  0  0
++         0  0  0  0  0  0  0  0  0  0  0  0  0  0  0  0  0
++         0  0  0  0  0  0  0  0  0  0  0  0  0  0  0  0  0
%c cc cc ccc ccc cccc cccc cccc cccc ccccc ccccc ccccc ccccc
%c cc cc ccc ccc cccc cccc cccc cccc ccccc ccccc ccccc ccccc
%f  0.0000000  0.000000000  0.00000000000  0.000000000000000
%f  0.0000000  0.000000000  0.00000000000  0.000000000000000
%i    0    0    0    0      0      0      0      0         0
%i    0    0    0    0      0      0      0      0         0
/*      NGA, ST. LOUIS,MO.                                  
/*   EPHEMERIS COMPUTED FROM  1 DAYS OF DATA
/*   EPOCHA SMOOTHER  
/* CCCCCCCCCCCCCCCCCCCCCCCCCCCCCCCCCCCCCCCCCCCCCCCCCCCCCCCCC
*  2013  7 24  1 40  0.00000000                                                 
P  1  17968.895150  13508.594322 -14241.851408     54.012974                    
V  1 -18085.740947  -1288.281085 -23977.429913      0.049879                    
P  2   6533.557330 -14715.061330  21287.335262    443.168316                    
V  2  26193.910581   5071.282283  -5089.309433      0.018015                    
P  3  -5765.531281  23774.433343 -10610.788510    236.597158                    
V  3  -9545.851122   9146.026323  27237.168611      0.050311                    
P  4  19067.304071  -8635.371545  16218.236466    280.530421                    
V  4  20358.033442   5933.297489 -20145.086048      0.103907                    
P  5    129.811881 -23925.509134  11350.266770   -398.927035                    
V  5   7570.427780  12726.192398  26822.806413     -0.004012                    
P  6 -12377.918385  22690.734184  -5100.742782    128.186654                    
V  6  -6908.970298   3132.901437  30665.713002     -0.182112                    
P  7  26086.042080   5823.404389    601.099422    239.425342                    
V  7  -1107.114495   1903.200076  31854.418052      0.042163                    
P  8  24790.292203    708.943737 -10198.342536      7.572703                    
V  8  12017.500813   4739.194935  28625.298302      0.002200                    
P  9  23031.177477  -4584.619463 -13037.583784    256.551426                    
V  9  15077.580626   4265.564416  26152.708200      0.025195                    
P 10  12194.222291 -10760.273039  20630.595220    -88.003595                    
V 10   9593.772991  25289.973559   7826.506568     -0.013395                    
P 11  11522.479074  14580.639882 -19502.096764   -403.613944                    
V 11 -23722.005695   4355.712628 -10749.061481     -0.035847                    
P 12 -10293.199499 -24313.674069   3723.142782    146.480297                    
V 12    353.438498  -5090.807312 -31676.217837      0.021186                    
P 13  17019.459101   2401.511556  20155.696965     97.023299                    
V 13 -18090.869090  18405.160756  12861.249269     -0.037083                    
P 14 -20949.097768  14582.287220  -6844.984779    218.974292                    
V 14   4575.868311  -8117.028380 -30530.794875     -0.004666                    
P 15  -4349.283549 -17371.379493 -19565.635049   -128.965127                    
V 15  16836.082748 -18452.133730  12917.854025     -0.016970                    
P 16  -1174.532204  23575.243333  11799.336932   -249.766924                    
V 16  -6197.075410 -13929.084104  27469.786680      0.005663                    
P 17  20780.343024 -13934.882303  -8329.224407     -4.002199                    
V 17  -5477.142532   9845.455664 -29590.360070     -0.037649                    
P 18 -17264.262975  -6193.304816 -18903.176691    265.152730                    
V 18  -6801.505434 -24020.925207  13429.598274      0.018456                    
P 19  -1531.558825  19161.840663 -18242.968792   -391.122801                    
V 19 -17764.731771  14873.127833  17631.181729     -0.029253                    
P 20  15045.091567  20304.879263   8119.819839    111.215542                    
V 20    779.665196  11128.627808 -28592.748793      0.023443                    
P 21 -26500.549132  -3323.940945  -2068.203871   -309.920439                    
V 21  -2629.543853  -3850.210842  30630.020453     -0.019481                    
P 22 -14135.963356   7524.358599 -20977.862214    176.968378                    
V 22  -9471.969054 -25575.048532  -2911.363462      0.016555                    
P 23  10600.634278  11182.577734  21698.187009     64.143915                    
V 23 -18320.607708  20376.372274  -1957.619045     -0.035287                    
P 24 -14500.011913 -14572.232373 -16853.100236    -10.501654                    
V 24  21352.852188   1952.921925 -20030.552916     -0.007282                    
P 25 -16218.109941 -14595.123967  15156.077843    126.277870                    
V 25  -4924.732704 -18723.252246 -23111.964498      0.050610                    
P 26  10182.561220 -21388.605684 -12309.215915    110.159575                    
V 26  11925.357314  -8847.164044  26945.116120      0.169321                    
P 27 -10532.437686  22506.672509  -9374.846098    -14.678093                    
V 27  -9648.864295   7411.762340  28665.442863     -0.049054                    
P 28  14245.510553  -2684.207902 -21679.293744    278.239479                    
V 28   7986.616222  27750.478724   1598.176484      0.031770                    
P 29 -15878.101780  -4194.111869  20909.028747    456.146436                    
V 29  17580.137983 -19763.618247   9449.137980      0.033477                    
P 31 -18223.483577   8298.139920  17759.033053    321.542716                    
V 31 -21351.201071  -5664.121308 -19175.348327      0.010516                    
P 32   7549.326345  25744.981184   1192.861213   -557.456934                    
V 32  -2322.110468   1993.656268 -31089.510680      0.010767                    
EOF
